NORAD_CAT_ID,OBJECT_NAME,OBJECT_TYPE,EPOCH,MEAN_MOTION,ECCENTRICITY,INCLINATION,RA_OF_ASC_NODE,ARG_OF_PERICENTER,MEAN_ANOMALY,BSTAR,MEAN_MOTION_DOT,MEAN_MOTION_DDOT,TLE_LINE0,TLE_LINE1,TLE_LINE2,SEMIMAJOR_AXIS,PERIOD,APOGEE,PERIGEE,DECAYED
53261.0,STARLINK-4062,PAYLOAD,2024-07-06 22:27:23,15.08832416,0.0001218,53.2178,55.9061,95.887,264.2261,-0.00010397,-1.942e-05,0.0,0 STARLINK-4062,1 53261U 22086V   24188.93569318 -.00001942  00000-0 -10397-3 0  9993,2 53261  53.2178  55.9061 0001218  95.8870 264.2261 15.08832416108864,6917.904,95.438,540.611,538.926,0.0
53261.0,STARLINK-4062,PAYLOAD,2024-07-07 07:59:42,15.08840858,0.0001291,53.2171,54.1202,93.6693,266.4447,-6.3553e-06,-3.89e-06,0.0,0 STARLINK-4062,1 53261U 22086V   24189.33312998 -.00000389  00000-0 -63553-5 0  9996,2 53261  53.2171  54.1202 0001291  93.6693 266.4447 15.08840858108741,6917.878,95.438,540.636,538.85,0.0
53261.0,STARLINK-4062,PAYLOAD,2024-07-08 07:50:29,15.08840108,0.0001164,53.2165,49.6554,85.0597,275.0528,0.00010032,1.309e-05,0.0,0 STARLINK-4062,1 53261U 22086V   24190.32673086  .00001309  00000-0  10032-3 0  9998,2 53261  53.2165  49.6554 0001164  85.0597 275.0528 15.08840108109071,6917.88,95.438,540.55,538.94,0.0
53261.0,STARLINK-4062,PAYLOAD,2024-07-08 20:33:34,15.08843107,0.000139,53.2177,47.2761,100.2666,259.8483,0.00011768,1.586e-05,0.0,0 STARLINK-4062,1 53261U 22086V   24190.85665055  .00001586  00000-0  11768-3 0  9997,2 53261  53.2177  47.2761 0001390 100.2666 259.8483 15.08843107108976,6917.871,95.437,540.697,538.774,0.0
53261.0,STARLINK-4062,PAYLOAD,2024-07-08 22:08:57,15.08845384,0.0001452,53.218,46.9783,98.6657,261.45,0.00013477,1.858e-05,0.0,0 STARLINK-4062,1 53261U 22086V   24190.92288963  .00001858  00000-0  13477-3 0  9995,2 53261  53.2180  46.9783 0001452  98.6657 261.4500 15.08845384109169,6917.864,95.437,540.733,538.724,0.0
53261.0,STARLINK-4062,PAYLOAD,2024-07-09 07:41:16,15.08845507,0.0001303,53.2173,45.1989,82.0707,278.0433,0.00011851,1.599e-05,0.0,0 STARLINK-4062,1 53261U 22086V   24191.32032961  .00001599  00000-0  11851-3 0  9991,2 53261  53.2173  45.1989 0001303  82.0707 278.0433 15.08845507109221,6917.864,95.437,540.63,538.827,0.0
53261.0,STARLINK-4062,PAYLOAD,2024-07-09 20:24:21,15.08845455,0.0001428,53.2181,42.8153,96.1638,263.9517,3.6953e-05,3e-06,0.0,0 STARLINK-4062,1 53261U 22086V   24191.85024823  .00000300  00000-0  36953-4 0  9997,2 53261  53.2181  42.8153 0001428  96.1638 263.9517 15.08845455109301,6917.864,95.437,540.717,538.741,0.0
53261.0,STARLINK-4062,PAYLOAD,2024-07-09 23:35:07,15.08848512,0.0001451,53.2182,42.2218,90.799,269.3169,7.0364e-05,8.32e-06,0.0,0 STARLINK-4062,1 53261U 22086V   24191.98272670  .00000832  00000-0  70364-4 0  9990,2 53261  53.2182  42.2218 0001451  90.7990 269.3169 15.08848512109147,6917.854,95.437,540.723,538.716,0.0
53261.0,STARLINK-4062,PAYLOAD,2024-07-10 07:32:03,15.08840435,0.0001301,53.217,40.7353,90.3417,269.7724,-2.5238e-05,-6.9e-06,0.0,0 STARLINK-4062,1 53261U 22086V   24192.31393096 -.00000690  00000-0 -25238-4 0  9998,2 53261  53.2170  40.7353 0001301  90.3417 269.7724 15.08840435109193,6917.879,95.438,540.644,538.844,0.0
53261.0,STARLINK-4062,PAYLOAD,2024-07-10 20:15:08,15.08840472,0.0001228,53.2185,38.3503,103.9155,256.1974,-1.5086e-07,-2.9e-06,0.0,0 STARLINK-4062,1 53261U 22086V   24192.84385087 -.00000290  00000-0 -15086-6 0  9995,2 53261  53.2185  38.3503 0001228 103.9155 256.1974 15.08840472109454,6917.879,95.438,540.593,538.894,0.0
53261.0,STARLINK-4062,PAYLOAD,2024-07-10 23:25:55,15.08839169,0.0001236,53.2184,37.7567,100.2834,259.8297,-1.1183e-05,-4.66e-06,0.0,0 STARLINK-4062,1 53261U 22086V   24192.97633208 -.00000466  00000-0 -11183-4 0  9997,2 53261  53.2184  37.7567 0001236 100.2834 259.8297 15.08839169109470,6917.883,95.438,540.603,538.893,0.0
53261.0,STARLINK-4062,PAYLOAD,2024-07-11 23:16:41,15.08849215,0.0001326,53.2184,33.3006,97.2651,262.8492,0.00016285,2.305e-05,0.0,0 STARLINK-4062,1 53261U 22086V   24193.96992820  .00002305  00000-0  16285-3 0  9994,2 53261  53.2184  33.3006 0001326  97.2651 262.8492 15.08849215109443,6917.852,95.437,540.635,538.8,0.0
53261.0,STARLINK-4062,PAYLOAD,2024-07-12 19:56:42,15.08844129,0.0001168,53.2172,29.4332,79.7923,280.32,0.00013663,1.888e-05,0.0,0 STARLINK-4062,1 53261U 22086V   24194.83105160  .00001888  00000-0  13663-3 0  9996,2 53261  53.2172  29.4332 0001168  79.7923 280.3200 15.08844129109574,6917.868,95.437,540.541,538.925,0.0
53261.0,STARLINK-4062,PAYLOAD,2024-07-13 13:25:57,15.08841547,0.0001295,53.2177,26.1682,91.3736,268.7404,-1.7702e-05,-5.7e-06,0.0,0 STARLINK-4062,1 53261U 22086V   24195.55969348 -.00000570  00000-0 -17702-4 0  9990,2 53261  53.2177  26.1682 0001295  91.3736 268.7404 15.08841547109863,6917.876,95.437,540.637,538.845,0.0
53261.0,STARLINK-4062,PAYLOAD,2024-07-13 21:22:52,15.08851413,0.0001248,53.2179,24.6802,86.2154,273.8981,0.00012574,1.714e-05,0.0,0 STARLINK-4062,1 53261U 22086V   24195.89088783  .00001714  00000-0  12574-3 0  9992,2 53261  53.2179  24.6802 0001248  86.2154 273.8981 15.08851413109913,6917.846,95.437,540.574,538.847,0.0
53261.0,STARLINK-4062,PAYLOAD,2024-07-14 05:19:48,15.08848553,0.0001052,53.2168,23.1924,84.9225,275.1887,8.9699e-05,1.14e-05,0.0,0 STARLINK-4062,1 53261U 22086V   24196.22208803  .00001140  00000-0  89699-4 0  9993,2 53261  53.2168  23.1924 0001052  84.9225 275.1887 15.08848553109783,6917.854,95.437,540.447,538.991,0.0
53261.0,STARLINK-4062,PAYLOAD,2024-07-14 11:41:21,15.08841152,0.000153,53.2175,22.0047,95.2588,264.8579,0.00013485,1.859e-05,0.0,0 STARLINK-4062,1 53261U 22086V   24196.48705371  .00001859  00000-0  13485-3 0  9999,2 53261  53.2175  22.0047 0001530  95.2588 264.8579 15.08841152110001,6917.877,95.437,540.8,538.683,0.0
53261.0,STARLINK-4062,PAYLOAD,2024-07-14 19:38:17,15.08840499,0.0001275,53.2179,20.5193,97.1469,262.9668,6.8946e-05,8.1e-06,0.0,0 STARLINK-4062,1 53261U 22086V   24196.81825323  .00000810  00000-0  68946-4 0  9995,2 53261  53.2179  20.5193 0001275  97.1469 262.9668 15.08840499109879,6917.879,95.438,540.626,538.862,0.0
53261.0,STARLINK-4062,PAYLOAD,2024-07-15 05:10:35,15.0883878,0.0001182,53.2177,18.7349,92.6326,267.4801,1.3479e-05,-7.3e-07,0.0,0 STARLINK-4062,1 53261U 22086V   24197.21569432 -.00000073  00000-0  13479-4 0  9999,2 53261  53.2177  18.7349 0001182  92.6326 267.4801 15.08838780110116,6917.884,95.438,540.567,538.931,0.0
53261.0,STARLINK-4062,PAYLOAD,2024-07-15 21:04:27,15.08845034,0.0001378,53.2192,15.7592,89.1516,270.9634,7.8083e-05,9.55e-06,0.0,0 STARLINK-4062,1 53261U 22086V   24197.87809637  .00000955  00000-0  78083-4 0  9995,2 53261  53.2192  15.7592 0001378  89.1516 270.9634 15.08845034110033,6917.865,95.437,540.683,538.777,0.0
53261.0,STARLINK-4062,PAYLOAD,2024-07-16 11:22:55,15.08838683,0.000142,53.2178,13.0826,88.8265,271.289,0.00010461,1.377e-05,0.0,0 STARLINK-4062,1 53261U 22086V   24198.47425868  .00001377  00000-0  10461-3 0  9996,2 53261  53.2178  13.0826 0001420  88.8265 271.2890 15.08838683110303,6917.884,95.438,540.732,538.767,0.0
53261.0,STARLINK-4062,PAYLOAD,2024-07-16 19:19:51,15.08850748,0.0001281,53.217,11.5967,87.594,272.5199,0.00025749,3.814e-05,0.0,0 STARLINK-4062,1 53261U 22086V   24198.80545190  .00003814  00000-0  25749-3 0  9997,2 53261  53.2170  11.5967 0001281  87.5940 272.5199 15.08850748110352,6917.848,95.437,540.599,538.826,0.0
53261.0,STARLINK-4062,PAYLOAD,2024-07-17 04:52:10,15.08840496,0.0001553,53.2183,9.8132,70.2971,289.8189,0.00010054,1.312e-05,0.0,0 STARLINK-4062,1 53261U 22086V   24199.20289787  .00001312  00000-0  10054-3 0  9993,2 53261  53.2183   9.8132 0001553  70.2971 289.8189 15.08840496110231,6917.879,95.438,540.818,538.67,0.0
53261.0,STARLINK-4062,PAYLOAD,2024-07-17 11:13:43,15.08836563,0.0001696,53.2165,8.6246,73.0277,287.0901,9.4295e-05,1.213e-05,0.0,0 STARLINK-4062,1 53261U 22086V   24199.46786124  .00001213  00000-0  94295-4 0  9998,2 53261  53.2165   8.6246 0001696  73.0277 287.0901 15.08836563110458,6917.891,95.438,540.929,538.583,0.0
53261.0,STARLINK-4062,PAYLOAD,2024-07-17 17:35:15,15.08839423,0.0001431,53.2177,7.4353,75.6488,284.4663,1.2981e-05,-8.1e-07,0.0,0 STARLINK-4062,1 53261U 22086V   24199.73282075 -.00000081  00000-0  12981-4 0  9999,2 53261  53.2177   7.4353 0001431  75.6488 284.4663 15.08839423110494,6917.882,95.438,540.737,538.757,0.0
53261.0,STARLINK-4062,PAYLOAD,2024-07-18 11:04:30,15.08842853,0.00015,53.2182,4.1638,75.6814,284.4344,6.3523e-05,7.23e-06,0.0,0 STARLINK-4062,1 53261U 22086V   24200.46146000  .00000723  00000-0  63523-4 0  9999,2 53261  53.2182   4.1638 0001500  75.6814 284.4344 15.08842853110420,6917.872,95.437,540.774,538.699,0.0
53261.0,STARLINK-4062,PAYLOAD,2024-07-18 14:15:16,15.0884536,0.0001463,53.2181,3.5693,76.2763,283.8392,0.00010875,1.443e-05,0.0,0 STARLINK-4062,1 53261U 22086V   24200.59393894  .00001443  00000-0  10875-3 0  9999,2 53261  53.2181   3.5693 0001463  76.2763 283.8392 15.08845360110625,6917.864,95.437,540.741,538.717,0.0
53261.0,STARLINK-4062,PAYLOAD,2024-07-18 17:26:02,15.08853029,0.0001427,53.2188,2.9733,79.381,280.7342,0.00013387,1.844e-05,0.0,0 STARLINK-4062,1 53261U 22086V   24200.72641439  .00001844  00000-0  13387-3 0  9991,2 53261  53.2188   2.9733 0001427  79.3810 280.7342 15.08853029110461,6917.841,95.437,540.693,538.718,0.0
53261.0,STARLINK-4062,PAYLOAD,2024-07-19 10:55:17,15.08838226,0.0001352,53.219,359.7027,76.8868,283.2275,0.00025729,3.809e-05,0.0,0 STARLINK-4062,1 53261U 22086V   24201.45506211  .00003809  00000-0  25729-3 0  9996,2 53261  53.2190 359.7027 0001352  76.8868 283.2275 15.08838226110572,6917.886,95.438,540.686,538.816,0.0
53261.0,STARLINK-4062,PAYLOAD,2024-07-19 14:06:03,15.08840874,0.0001413,53.2168,359.1074,70.4474,289.667,0.00018615,2.676e-05,0.0,0 STARLINK-4062,1 53261U 22086V   24201.58754058  .00002676  00000-0  18615-3 0  9991,2 53261  53.2168 359.1074 0001413  70.4474 289.6670 15.08840874110777,6917.878,95.437,540.72,538.765,0.0
